<?xml version="1.0" encoding="UTF-8"?>
<seiscomp xmlns="http://geofon.gfz-potsdam.de/ns/seiscomp3-schema/0.10" version="0.10"><EventParameters><pick publicID="Pick/20220202204558.90181.36214"><time><value>2022-02-02T20:43:20.31777Z</value></time><waveformID networkCode="CM" stationCode="BAR2" locationCode="00" channelCode="HHZ"/><phaseHint>P</phaseHint><evaluationMode>manual</evaluationMode><creationInfo><agencyID>SGC</agencyID><creationTime>2022-02-02T20:45:58.901928Z</creationTime></creationInfo></pick><pick publicID="Pick/20220202204558.902014.36215"><time><value>2022-02-02T20:43:35.569778Z</value></time><waveformID networkCode="CM" stationCode="BAR2" locationCode="00" channelCode="HHN"/><phaseHint>S</phaseHint><evaluationMode>manual</evaluationMode><creationInfo><agencyID>SGC</agencyID><creationTime>2022-02-02T20:45:58.902072Z</creationTime></creationInfo></pick><pick publicID="Pick/20220202204558.902131.36216"><time><value>2022-02-02T20:43:21.919798Z</value></time><waveformID networkCode="CM" stationCode="BRJC" locationCode="00" channelCode="HHZ"/><phaseHint>P</phaseHint><polarity>positive</polarity><evaluationMode>manual</evaluationMode><creationInfo><agencyID>SGC</agencyID><creationTime>2022-02-02T20:45:58.902186Z</creationTime></creationInfo></pick><pick publicID="Pick/20220202204558.902225.36217"><time><value>2022-02-02T20:43:38.967742Z</value></time><waveformID networkCode="CM" stationCode="BRJC" locationCode="00" channelCode="HHN"/><phaseHint>S</phaseHint><evaluationMode>manual</evaluationMode><creationInfo><agencyID>SGC</agencyID><creationTime>2022-02-02T20:45:58.902277Z</creationTime></creationInfo></pick><pick publicID="Pick/20220202204558.902346.36218"><time><value>2022-02-02T20:43:23.358544Z</value></time><waveformID networkCode="CM" stationCode="PAM" locationCode="20" channelCode="EHZ"/><phaseHint>P</phaseHint><evaluationMode>manual</evaluationMode><creationInfo><agencyID>SGC</agencyID><creationTime>2022-02-02T20:45:58.902401Z</creationTime></creationInfo></pick><pick publicID="Pick/20220202204558.902453.36219"><time><value>2022-02-02T20:43:40.264868Z</value></time><waveformID networkCode="CM" stationCode="PAM" locationCode="20" channelCode="EHN"/><phaseHint>S</phaseHint><evaluationMode>manual</evaluationMode><creationInfo><agencyID>SGC</agencyID><creationTime>2022-02-02T20:45:58.902504Z</creationTime></creationInfo></pick><pick publicID="Pick/20220202204558.90256.36220"><time><value>2022-02-02T20:43:24.208687Z</value></time><waveformID networkCode="CM" stationCode="RUS" locationCode="00" channelCode="HHZ"/><phaseHint>P</phaseHint><evaluationMode>manual</evaluationMode><creationInfo><agencyID>SGC</agencyID><creationTime>2022-02-02T20:45:58.902617Z</creationTime></creationInfo></pick><pick publicID="Pick/20220202204558.902667.36221"><time><value>2022-02-02T20:43:42.757412Z</value></time><waveformID networkCode="CM" stationCode="RUS" locationCode="00" channelCode="HHN"/><phaseHint>S</phaseHint><evaluationMode>manual</evaluationMode><creationInfo><agencyID>SGC</agencyID><creationTime>2022-02-02T20:45:58.902717Z</creationTime></creationInfo></pick><pick publicID="Pick/20220202204558.902769.36222"><time><value>2022-02-02T20:43:26.647375Z</value></time><waveformID networkCode="CM" stationCode="PTB" locationCode="00" channelCode="HHZ"/><phaseHint>P</phaseHint><evaluationMode>manual</evaluationMode><creationInfo><agencyID>SGC</agencyID><creationTime>2022-02-02T20:45:58.902819Z</creationTime></creationInfo></pick><pick publicID="Pick/20220202204558.902867.36223"><time><value>2022-02-02T20:43:47.974086Z</value></time><waveformID networkCode="CM" stationCode="PTB" locationCode="00" channelCode="HHN"/><phaseHint>S</phaseHint><evaluationMode>manual</evaluationMode><creationInfo><agencyID>SGC</agencyID><creationTime>2022-02-02T20:45:58.902916Z</creationTime></creationInfo></pick><pick publicID="Pick/20220202204558.902969.36224"><time><value>2022-02-02T20:43:28.989966Z</value></time><waveformID networkCode="CM" stationCode="SPBC" locationCode="00" channelCode="HHZ"/><phaseHint>P</phaseHint><evaluationMode>manual</evaluationMode><creationInfo><agencyID>SGC</agencyID><creationTime>2022-02-02T20:45:58.903019Z</creationTime></creationInfo></pick><pick publicID="Pick/20220202204558.903065.36225"><time><value>2022-02-02T20:43:50.72123Z</value></time><waveformID networkCode="CM" stationCode="SPBC" locationCode="00" channelCode="HHE"/><phaseHint>S</phaseHint><evaluationMode>manual</evaluationMode><creationInfo><agencyID>SGC</agencyID><creationTime>2022-02-02T20:45:58.903113Z</creationTime></creationInfo></pick><pick publicID="Pick/20220202204558.903167.36226"><time><value>2022-02-02T20:43:30.781296Z</value></time><waveformID networkCode="CM" stationCode="YPLC" locationCode="00" channelCode="HHZ"/><phaseHint>P</phaseHint><evaluationMode>manual</evaluationMode><creationInfo><agencyID>SGC</agencyID><creationTime>2022-02-02T20:45:58.903216Z</creationTime></creationInfo></pick><pick publicID="Pick/20220202204558.903269.36227"><time><value>2022-02-02T20:43:54.497087Z</value></time><waveformID networkCode="CM" stationCode="YPLC" locationCode="00" channelCode="HHN"/><phaseHint>S</phaseHint><evaluationMode>manual</evaluationMode><creationInfo><agencyID>SGC</agencyID><creationTime>2022-02-02T20:45:58.903317Z</creationTime></creationInfo></pick><pick publicID="Pick/20220202205002.486639.37485"><time><value>2022-02-02T20:43:33.661773Z</value></time><waveformID networkCode="CM" stationCode="ZAR" locationCode="00" channelCode="HHZ"/><phaseHint>P</phaseHint><evaluationMode>manual</evaluationMode><creationInfo><agencyID>SGC</agencyID><creationTime>2022-02-02T20:50:02.486753Z</creationTime></creationInfo></pick><pick publicID="Pick/20220202205002.486836.37486"><time><value>2022-02-02T20:43:58.052242Z</value></time><waveformID networkCode="CM" stationCode="ZAR" locationCode="00" channelCode="HHE"/><phaseHint>S</phaseHint><evaluationMode>manual</evaluationMode><creationInfo><agencyID>SGC</agencyID><creationTime>2022-02-02T20:50:02.486899Z</creationTime></creationInfo></pick><pick publicID="Pick/20220202205002.486967.37487"><time><value>2022-02-02T20:43:37.062177Z</value><lowerUncertainty>0.1000000015</lowerUncertainty><upperUncertainty>0.1000000015</upperUncertainty></time><waveformID networkCode="CM" stationCode="TABC" locationCode="20" channelCode="EHZ"/><phaseHint>P</phaseHint><evaluationMode>manual</evaluationMode><creationInfo><agencyID>SGC</agencyID><creationTime>2022-02-02T20:50:02.487029Z</creationTime></creationInfo></pick><pick publicID="Pick/20220202205002.487097.37488"><time><value>2022-02-02T20:44:05.223891Z</value><lowerUncertainty>0.1000000015</lowerUncertainty><upperUncertainty>0.1000000015</upperUncertainty></time><waveformID networkCode="CM" stationCode="TABC" locationCode="20" channelCode="EHZ"/><phaseHint>S</phaseHint><evaluationMode>manual</evaluationMode><creationInfo><agencyID>SGC</agencyID><creationTime>2022-02-02T20:50:02.487157Z</creationTime></creationInfo></pick><pick publicID="Pick/20220202205002.487221.37489"><time><value>2022-02-02T20:43:36.366116Z</value></time><waveformID networkCode="CM" stationCode="NOR" locationCode="00" channelCode="HHZ"/><phaseHint>P</phaseHint><evaluationMode>manual</evaluationMode><creationInfo><agencyID>SGC</agencyID><creationTime>2022-02-02T20:50:02.48728Z</creationTime></creationInfo></pick><pick publicID="Pick/20220202205002.487342.37490"><time><value>2022-02-02T20:44:03.686285Z</value></time><waveformID networkCode="CM" stationCode="NOR" locationCode="00" channelCode="HHE"/><phaseHint>S</phaseHint><evaluationMode>manual</evaluationMode><creationInfo><agencyID>SGC</agencyID><creationTime>2022-02-02T20:50:02.487397Z</creationTime></creationInfo></pick><pick publicID="Pick/20220202204558.903367.36228"><time><value>2022-02-02T20:43:38.528976Z</value></time><waveformID networkCode="CM" stationCode="CHI" locationCode="00" channelCode="HHZ"/><phaseHint>P</phaseHint><evaluationMode>manual</evaluationMode><creationInfo><agencyID>SGC</agencyID><creationTime>2022-02-02T20:45:58.903415Z</creationTime></creationInfo></pick><pick publicID="Pick/20220202204558.903458.36229"><time><value>2022-02-02T20:44:07.810323Z</value></time><waveformID networkCode="CM" stationCode="CHI" locationCode="00" channelCode="HHN"/><phaseHint>S</phaseHint><evaluationMode>manual</evaluationMode><creationInfo><agencyID>SGC</agencyID><creationTime>2022-02-02T20:45:58.903505Z</creationTime></creationInfo></pick><pick publicID="Pick/20220202205002.48753.37491"><time><value>2022-02-02T20:43:38.668234Z</value></time><waveformID networkCode="CM" stationCode="ROSC" channelCode="BHZ"/><phaseHint>P</phaseHint><evaluationMode>manual</evaluationMode><creationInfo><agencyID>SGC</agencyID><creationTime>2022-02-02T20:50:02.487593Z</creationTime></creationInfo></pick><pick publicID="Pick/20220202205002.487655.37492"><time><value>2022-02-02T20:44:07.343415Z</value></time><waveformID networkCode="CM" stationCode="ROSC" channelCode="BHE"/><phaseHint>S</phaseHint><evaluationMode>manual</evaluationMode><creationInfo><agencyID>SGC</agencyID><creationTime>2022-02-02T20:50:02.487712Z</creationTime></creationInfo></pick><pick publicID="Pick/20220202205002.487891.37494"><time><value>2022-02-02T20:43:39.660977Z</value><lowerUncertainty>0.1000000015</lowerUncertainty><upperUncertainty>0.1000000015</upperUncertainty></time><waveformID networkCode="CM" stationCode="BOG" locationCode="10" channelCode="HNZ"/><filterID>BW(3,5,10)</filterID><phaseHint>P</phaseHint><evaluationMode>manual</evaluationMode><creationInfo><agencyID>SGC</agencyID><creationTime>2022-02-02T20:50:02.487949Z</creationTime></creationInfo></pick><pick publicID="Pick/20220202205002.487771.37493"><time><value>2022-02-02T20:44:08.963769Z</value><lowerUncertainty>0.1000000015</lowerUncertainty><upperUncertainty>0.1000000015</upperUncertainty></time><waveformID networkCode="CM" stationCode="BOG" locationCode="10" channelCode="HNE"/><filterID>BW(3,0.1,1))</filterID><phaseHint>S</phaseHint><evaluationMode>manual</evaluationMode><creationInfo><agencyID>SGC</agencyID><creationTime>2022-02-02T20:50:02.487831Z</creationTime></creationInfo></pick><pick publicID="Pick/20220202205002.488012.37495"><time><value>2022-02-02T20:43:41.726317Z</value><lowerUncertainty>0.1000000015</lowerUncertainty><upperUncertainty>0.1000000015</upperUncertainty></time><waveformID networkCode="CM" stationCode="HEL" locationCode="00" channelCode="HHZ"/><phaseHint>P</phaseHint><evaluationMode>manual</evaluationMode><creationInfo><agencyID>SGC</agencyID><creationTime>2022-02-02T20:50:02.488069Z</creationTime></creationInfo></pick><pick publicID="Pick/20220202205002.48813.37496"><time><value>2022-02-02T20:44:11.531184Z</value><lowerUncertainty>0.1000000015</lowerUncertainty><upperUncertainty>0.1000000015</upperUncertainty></time><waveformID networkCode="CM" stationCode="HEL" locationCode="00" channelCode="HHE"/><filterID>BW(3,5,10)</filterID><phaseHint>S</phaseHint><evaluationMode>manual</evaluationMode><creationInfo><agencyID>SGC</agencyID><creationTime>2022-02-02T20:50:02.488188Z</creationTime></creationInfo></pick><pick publicID="Pick/20220202205002.48825.37497"><time><value>2022-02-02T20:43:41.863255Z</value><lowerUncertainty>0.1000000015</lowerUncertainty><upperUncertainty>0.1000000015</upperUncertainty></time><waveformID networkCode="CM" stationCode="CVER" locationCode="00" channelCode="HHZ"/><filterID>BW(3,5,10)</filterID><phaseHint>P</phaseHint><evaluationMode>manual</evaluationMode><creationInfo><agencyID>SGC</agencyID><creationTime>2022-02-02T20:50:02.488315Z</creationTime></creationInfo></pick><pick publicID="Pick/20220202205002.488375.37498"><time><value>2022-02-02T20:44:13.562313Z</value><lowerUncertainty>0.5</lowerUncertainty><upperUncertainty>0.5</upperUncertainty></time><waveformID networkCode="CM" stationCode="CVER" locationCode="00" channelCode="HHN"/><filterID>BW(3,5,10)</filterID><phaseHint>S</phaseHint><evaluationMode>manual</evaluationMode><creationInfo><agencyID>SGC</agencyID><creationTime>2022-02-02T20:50:02.488432Z</creationTime></creationInfo></pick><pick publicID="Pick/20220202205002.4885.37499"><time><value>2022-02-02T20:43:39.980512Z</value></time><waveformID networkCode="CM" stationCode="URE" locationCode="00" channelCode="HHZ"/><phaseHint>P</phaseHint><evaluationMode>manual</evaluationMode><creationInfo><agencyID>SGC</agencyID><creationTime>2022-02-02T20:50:02.488559Z</creationTime></creationInfo></pick><pick publicID="Pick/20220202205002.488622.37500"><time><value>2022-02-02T20:44:11.53121Z</value></time><waveformID networkCode="CM" stationCode="URE" locationCode="00" channelCode="HHE"/><phaseHint>S</phaseHint><evaluationMode>manual</evaluationMode><creationInfo><agencyID>SGC</agencyID><creationTime>2022-02-02T20:50:02.488678Z</creationTime></creationInfo></pick><pick publicID="Pick/20220202205002.488739.37501"><time><value>2022-02-02T20:43:41.846169Z</value><lowerUncertainty>0.1000000015</lowerUncertainty><upperUncertainty>0.1000000015</upperUncertainty></time><waveformID networkCode="CM" stationCode="DRL03" locationCode="30" channelCode="HHZ"/><filterID>BW(3,5,10)</filterID><phaseHint>P</phaseHint><evaluationMode>manual</evaluationMode><creationInfo><agencyID>SGC</agencyID><creationTime>2022-02-02T20:50:02.4888Z</creationTime></creationInfo></pick><pick publicID="Pick/20220202205002.488884.37502"><time><value>2022-02-02T20:44:14.771855Z</value><lowerUncertainty>0.1000000015</lowerUncertainty><upperUncertainty>0.1000000015</upperUncertainty></time><waveformID networkCode="CM" stationCode="DRL03" locationCode="30" channelCode="HHN"/><filterID>BW(3,5,10)</filterID><phaseHint>S</phaseHint><evaluationMode>manual</evaluationMode><creationInfo><agencyID>SGC</agencyID><creationTime>2022-02-02T20:50:02.488949Z</creationTime></creationInfo></pick><pick publicID="Pick/20220202205002.489017.37503"><time><value>2022-02-02T20:43:43.911495Z</value><lowerUncertainty>0.1000000015</lowerUncertainty><upperUncertainty>0.1000000015</upperUncertainty></time><waveformID networkCode="CM" stationCode="VIL" locationCode="20" channelCode="EHZ"/><filterID>BW(3,5,10)</filterID><phaseHint>P</phaseHint><evaluationMode>manual</evaluationMode><creationInfo><agencyID>SGC</agencyID><creationTime>2022-02-02T20:50:02.489075Z</creationTime></creationInfo></pick><pick publicID="Pick/20220202205002.48913.37504"><time><value>2022-02-02T20:44:17.573188Z</value><lowerUncertainty>0.1000000015</lowerUncertainty><upperUncertainty>0.1000000015</upperUncertainty></time><waveformID networkCode="CM" stationCode="VIL" locationCode="20" channelCode="EHE"/><filterID>BW(3,5,10)</filterID><phaseHint>S</phaseHint><evaluationMode>manual</evaluationMode><creationInfo><agencyID>SGC</agencyID><creationTime>2022-02-02T20:50:02.489189Z</creationTime></creationInfo></pick><pick publicID="Pick/20220202205002.489244.37505"><time><value>2022-02-02T20:43:43.500693Z</value></time><waveformID networkCode="CM" stationCode="PTGC" locationCode="00" channelCode="HHZ"/><phaseHint>P</phaseHint><evaluationMode>manual</evaluationMode><creationInfo><agencyID>SGC</agencyID><creationTime>2022-02-02T20:50:02.489299Z</creationTime></creationInfo></pick><pick publicID="Pick/20220202205002.489349.37506"><time><value>2022-02-02T20:44:16.962705Z</value><lowerUncertainty>0.1000000015</lowerUncertainty><upperUncertainty>0.1000000015</upperUncertainty></time><waveformID networkCode="CM" stationCode="PTGC" locationCode="00" channelCode="HHE"/><filterID>BW(3,5,10)</filterID><phaseHint>S</phaseHint><evaluationMode>manual</evaluationMode><creationInfo><agencyID>SGC</agencyID><creationTime>2022-02-02T20:50:02.489404Z</creationTime></creationInfo></pick><pick publicID="Pick/20220202205002.489457.37507"><time><value>2022-02-02T20:43:46.66718Z</value><lowerUncertainty>0.1000000015</lowerUncertainty><upperUncertainty>0.1000000015</upperUncertainty></time><waveformID networkCode="CM" stationCode="PIRM" locationCode="00" channelCode="HHZ"/><phaseHint>P</phaseHint><evaluationMode>manual</evaluationMode><creationInfo><agencyID>SGC</agencyID><creationTime>2022-02-02T20:50:02.489512Z</creationTime></creationInfo></pick><pick publicID="Pick/20220202205002.489562.37508"><time><value>2022-02-02T20:44:22.679504Z</value></time><waveformID networkCode="CM" stationCode="PIRM" locationCode="00" channelCode="HHE"/><phaseHint>S</phaseHint><evaluationMode>manual</evaluationMode><creationInfo><agencyID>SGC</agencyID><creationTime>2022-02-02T20:50:02.489614Z</creationTime></creationInfo></pick><pick publicID="Pick/20220202205002.489877.37511"><time><value>2022-02-02T20:43:48.127774Z</value></time><waveformID networkCode="CM" stationCode="CBOC" locationCode="00" channelCode="HHZ"/><phaseHint>P</phaseHint><evaluationMode>manual</evaluationMode><creationInfo><agencyID>SGC</agencyID><creationTime>2022-02-02T20:50:02.489929Z</creationTime></creationInfo></pick><pick publicID="Pick/20220202205002.489975.37512"><time><value>2022-02-02T20:44:22.924829Z</value></time><waveformID networkCode="CM" stationCode="CBOC" locationCode="00" channelCode="HHN"/><phaseHint>S</phaseHint><evaluationMode>manual</evaluationMode><creationInfo><agencyID>SGC</agencyID><creationTime>2022-02-02T20:50:02.490025Z</creationTime></creationInfo></pick><pick publicID="Pick/20220202205002.489671.37509"><time><value>2022-02-02T20:43:47.032353Z</value><lowerUncertainty>0.1000000015</lowerUncertainty><upperUncertainty>0.1000000015</upperUncertainty></time><waveformID networkCode="CM" stationCode="DRL01" locationCode="30" channelCode="HHZ"/><filterID>BW(3,5,10)</filterID><phaseHint>P</phaseHint><evaluationMode>manual</evaluationMode><creationInfo><agencyID>SGC</agencyID><creationTime>2022-02-02T20:50:02.489726Z</creationTime></creationInfo></pick><pick publicID="Pick/20220202205002.489774.37510"><time><value>2022-02-02T20:44:22.770807Z</value><lowerUncertainty>0.1000000015</lowerUncertainty><upperUncertainty>0.1000000015</upperUncertainty></time><waveformID networkCode="CM" stationCode="DRL01" locationCode="30" channelCode="HHN"/><filterID>BW(3,5,10)</filterID><phaseHint>S</phaseHint><evaluationMode>manual</evaluationMode><creationInfo><agencyID>SGC</agencyID><creationTime>2022-02-02T20:50:02.489827Z</creationTime></creationInfo></pick><pick publicID="Pick/20220202205002.490095.37513"><time><value>2022-02-02T20:43:54.60336Z</value><lowerUncertainty>0.1000000015</lowerUncertainty><upperUncertainty>0.1000000015</upperUncertainty></time><waveformID networkCode="CM" stationCode="QUBC" locationCode="00" channelCode="HHZ"/><filterID>BW(3,5,10)</filterID><phaseHint>P</phaseHint><evaluationMode>manual</evaluationMode><creationInfo><agencyID>SGC</agencyID><creationTime>2022-02-02T20:50:02.490152Z</creationTime></creationInfo></pick><pick publicID="Pick/20220202205002.490202.37514"><time><value>2022-02-02T20:44:36.047186Z</value><lowerUncertainty>0.1000000015</lowerUncertainty><upperUncertainty>0.1000000015</upperUncertainty></time><waveformID networkCode="CM" stationCode="QUBC" locationCode="00" channelCode="HHN"/><filterID>BW(3,5,10)</filterID><phaseHint>S</phaseHint><evaluationMode>manual</evaluationMode><creationInfo><agencyID>SGC</agencyID><creationTime>2022-02-02T20:50:02.490257Z</creationTime></creationInfo></pick><pick publicID="Pick/20220202205002.490309.37515"><time><value>2022-02-02T20:43:54.20399Z</value></time><waveformID networkCode="CM" stationCode="PRA" locationCode="00" channelCode="HHZ"/><phaseHint>P</phaseHint><evaluationMode>manual</evaluationMode><creationInfo><agencyID>SGC</agencyID><creationTime>2022-02-02T20:50:02.490372Z</creationTime></creationInfo></pick><pick publicID="Pick/20220202205002.49053.37517"><time><value>2022-02-02T20:43:55.265195Z</value><lowerUncertainty>0.1000000015</lowerUncertainty><upperUncertainty>0.1000000015</upperUncertainty></time><waveformID networkCode="CM" stationCode="ORTC" locationCode="00" channelCode="HHZ"/><filterID>BW(3,5,10)</filterID><phaseHint>P</phaseHint><evaluationMode>manual</evaluat